IRIDIUM 106             
1 41917U 17003A   26194.11914560  .00000025  00000+0  19648-5 0  9991
2 41917  86.3941  77.7135 0002141  94.0323 266.1118 14.34217040496925
IRIDIUM 103             
1 41918U 17003B   26193.05993341  .00000000  00000+0 -71520-5 0  9999
2 41918  86.3942  78.0561 0001876  82.9318 277.2091 14.34217298496791
IRIDIUM 109             
1 41919U 17003C   26193.76395975 -.00000048  00000+0 -24230-4 0  9995
2 41919  86.3943  77.8215 0002039  83.9139 276.2289 14.34216872496863
IRIDIUM 102             
1 41920U 17003D   26193.80201809  .00000118  00000+0  35108-4 0  9996
2 41920  86.3945  77.7289 0002252  84.5555 275.5898 14.34217808496951
IRIDIUM 105             
1 41921U 17003E   26194.03968618  .00000157  00000+0  49104-4 0  9995
2 41921  86.3942  46.0572 0002173  79.7304 280.4136 14.34217519498842
IRIDIUM 104             
1 41922U 17003F   26194.09377569  .00000147  00000+0  45411-4 0  9997
2 41922  86.3945  77.6497 0002035  78.4900 281.6524 14.34217843496984
IRIDIUM 114             
1 41923U 17003G   26194.10011821 -.00000017  00000+0 -13279-4 0  9991
2 41923  86.3941  77.6295 0001940  81.4075 278.7340 14.34217161496962
IRIDIUM 108             
1 41924U 17003H   26193.98887131  .00000142  00000+0  43733-4 0  9997
2 41924  86.3938  45.9671 0002229  85.1261 275.0190 14.34217739498803
IRIDIUM 112             
1 41925U 17003J   26191.64552802  .00000122  00000+0  36640-4 0  9990
2 41925  86.3941  78.4973 0002156  81.8094 278.3346 14.34219864496639
IRIDIUM 111             
1 41926U 17003K   26193.72590600  .00000123  00000+0  36847-4 0  9990
2 41926  86.3943  77.6987 0002160  84.7921 275.3521 14.34217794496917
IRIDIUM 113             
1 42803U 17039A   26194.26401741  .00000006  00000+0 -48486-5 0  9995
2 42803  86.3988 311.2796 0002012  90.3861 269.7566 14.34217146474922
IRIDIUM 123             
1 42804U 17039B   26193.88688436 -.00000015  00000+0 -12341-4 0  9992
2 42804  86.3984 342.8934 0002055  96.5802 263.5628 14.34217109473630
IRIDIUM 120             
1 42805U 17039C   26193.28091816 -.00000034  00000+0 -19145-4 0  9997
2 42805  86.3977 311.4699 0002227  98.0173 262.1275 14.34216625474773
IRIDIUM 115             
1 42806U 17039D   26194.32563931  .00000188  00000+0  50032-4 0  9994
2 42806  86.4517 311.1652 0002213  99.4567 260.6884 14.43277067478037
IRIDIUM 118             
1 42807U 17039E   26193.91859886  .00000031  00000+0  41214-5 0  9996
2 42807  86.3985 342.8780 0002135  90.2798 269.8642 14.34217576473630
IRIDIUM 117             
1 42808U 17039F   26193.93762507  .00000102  00000+0  29202-4 0  9993
2 42808  86.3988 342.8273 0002184  94.8579 265.2866 14.34217285473660
