{"fetched_at":"2026-07-13T18:16:28.145Z","source":"https://celestrak.org/NORAD/elements/gp.php?GROUP=iridium-NEXT&FORMAT=JSON","constellation":"iridium","records":[{"OBJECT_NAME":"IRIDIUM 106","OBJECT_ID":"2017-003A","EPOCH":"2026-07-13T02:51:34.179840","CLASSIFICATION_TYPE":"U","MEAN_MOTION":14.3421704,"ECCENTRICITY":0.00021419,"INCLINATION":86.3941,"RA_OF_ASC_NODE":77.7135,"ARG_OF_PERICENTER":94.0323,"MEAN_ANOMALY":266.1118,"EPHEMERIS_TYPE":0,"NORAD_CAT_ID":41917,"ELEMENT_SET_NO":999,"REV_AT_EPOCH":49692,"BSTAR":0.000001964824,"MEAN_MOTION_DOT":2.5e-7,"MEAN_MOTION_DDOT":0},{"OBJECT_NAME":"IRIDIUM 103","OBJECT_ID":"2017-003B","EPOCH":"2026-07-12T01:26:18.246624","CLASSIFICATION_TYPE":"U","MEAN_MOTION":14.34217298,"ECCENTRICITY":0.00018764,"INCLINATION":86.3942,"RA_OF_ASC_NODE":78.0561,"ARG_OF_PERICENTER":82.9318,"MEAN_ANOMALY":277.2091,"EPHEMERIS_TYPE":0,"NORAD_CAT_ID":41918,"ELEMENT_SET_NO":999,"REV_AT_EPOCH":49679,"BSTAR":-0.000007151981,"MEAN_MOTION_DOT":0,"MEAN_MOTION_DDOT":0},{"OBJECT_NAME":"IRIDIUM 109","OBJECT_ID":"2017-003C","EPOCH":"2026-07-12T18:20:06.122400","CLASSIFICATION_TYPE":"U","MEAN_MOTION":14.34216872,"ECCENTRICITY":0.00020399,"INCLINATION":86.3943,"RA_OF_ASC_NODE":77.8215,"ARG_OF_PERICENTER":83.9139,"MEAN_ANOMALY":276.2289,"EPHEMERIS_TYPE":0,"NORAD_CAT_ID":41919,"ELEMENT_SET_NO":999,"REV_AT_EPOCH":49686,"BSTAR":-0.000024230003,"MEAN_MOTION_DOT":-4.8e-7,"MEAN_MOTION_DDOT":0},{"OBJECT_NAME":"IRIDIUM 102","OBJECT_ID":"2017-003D","EPOCH":"2026-07-12T19:14:54.362976","CLASSIFICATION_TYPE":"U","MEAN_MOTION":14.34217808,"ECCENTRICITY":0.00022525,"INCLINATION":86.3945,"RA_OF_ASC_NODE":77.7289,"ARG_OF_PERICENTER":84.5555,"MEAN_ANOMALY":275.5898,"EPHEMERIS_TYPE":0,"NORAD_CAT_ID":41920,"ELEMENT_SET_NO":999,"REV_AT_EPOCH":49695,"BSTAR":0.000035107621,"MEAN_MOTION_DOT":0.00000118,"MEAN_MOTION_DDOT":0},{"OBJECT_NAME":"IRIDIUM 105","OBJECT_ID":"2017-003E","EPOCH":"2026-07-13T00:57:08.885952","CLASSIFICATION_TYPE":"U","MEAN_MOTION":14.34217519,"ECCENTRICITY":0.00021731,"INCLINATION":86.3942,"RA_OF_ASC_NODE":46.0572,"ARG_OF_PERICENTER":79.7304,"MEAN_ANOMALY":280.4136,"EPHEMERIS_TYPE":0,"NORAD_CAT_ID":41921,"ELEMENT_SET_NO":999,"REV_AT_EPOCH":49884,"BSTAR":0.000049104197,"MEAN_MOTION_DOT":0.00000157,"MEAN_MOTION_DDOT":0},{"OBJECT_NAME":"IRIDIUM 104","OBJECT_ID":"2017-003F","EPOCH":"2026-07-13T02:15:02.219616","CLASSIFICATION_TYPE":"U","MEAN_MOTION":14.34217843,"ECCENTRICITY":0.0002035,"INCLINATION":86.3945,"RA_OF_ASC_NODE":77.6497,"ARG_OF_PERICENTER":78.49,"MEAN_ANOMALY":281.6524,"EPHEMERIS_TYPE":0,"NORAD_CAT_ID":41922,"ELEMENT_SET_NO":999,"REV_AT_EPOCH":49698,"BSTAR":0.000045410628,"MEAN_MOTION_DOT":0.00000147,"MEAN_MOTION_DDOT":0},{"OBJECT_NAME":"IRIDIUM 114","OBJECT_ID":"2017-003G","EPOCH":"2026-07-13T02:24:10.213344","CLASSIFICATION_TYPE":"U","MEAN_MOTION":14.34217161,"ECCENTRICITY":0.00019401,"INCLINATION":86.3941,"RA_OF_ASC_NODE":77.6295,"ARG_OF_PERICENTER":81.4075,"MEAN_ANOMALY":278.734,"EPHEMERIS_TYPE":0,"NORAD_CAT_ID":41923,"ELEMENT_SET_NO":999,"REV_AT_EPOCH":49696,"BSTAR":-0.000013278791,"MEAN_MOTION_DOT":-1.7e-7,"MEAN_MOTION_DDOT":0},{"OBJECT_NAME":"IRIDIUM 108","OBJECT_ID":"2017-003H","EPOCH":"2026-07-12T23:43:58.481184","CLASSIFICATION_TYPE":"U","MEAN_MOTION":14.34217739,"ECCENTRICITY":0.0002229,"INCLINATION":86.3938,"RA_OF_ASC_NODE":45.9671,"ARG_OF_PERICENTER":85.1261,"MEAN_ANOMALY":275.019,"EPHEMERIS_TYPE":0,"NORAD_CAT_ID":41924,"ELEMENT_SET_NO":999,"REV_AT_EPOCH":49880,"BSTAR":0.000043732924,"MEAN_MOTION_DOT":0.00000142,"MEAN_MOTION_DDOT":0},{"OBJECT_NAME":"IRIDIUM 112","OBJECT_ID":"2017-003J","EPOCH":"2026-07-10T15:29:33.620928","CLASSIFICATION_TYPE":"U","MEAN_MOTION":14.34219864,"ECCENTRICITY":0.00021565,"INCLINATION":86.3941,"RA_OF_ASC_NODE":78.4973,"ARG_OF_PERICENTER":81.8094,"MEAN_ANOMALY":278.3346,"EPHEMERIS_TYPE":0,"NORAD_CAT_ID":41925,"ELEMENT_SET_NO":999,"REV_AT_EPOCH":49663,"BSTAR":0.000036640037,"MEAN_MOTION_DOT":0.00000122,"MEAN_MOTION_DDOT":0},{"OBJECT_NAME":"IRIDIUM 111","OBJECT_ID":"2017-003K","EPOCH":"2026-07-12T17:25:18.278400","CLASSIFICATION_TYPE":"U","MEAN_MOTION":14.34217794,"ECCENTRICITY":0.000216,"INCLINATION":86.3943,"RA_OF_ASC_NODE":77.6987,"ARG_OF_PERICENTER":84.7921,"MEAN_ANOMALY":275.3521,"EPHEMERIS_TYPE":0,"NORAD_CAT_ID":41926,"ELEMENT_SET_NO":999,"REV_AT_EPOCH":49691,"BSTAR":0.000036846551,"MEAN_MOTION_DOT":0.00000123,"MEAN_MOTION_DDOT":0},{"OBJECT_NAME":"IRIDIUM 113","OBJECT_ID":"2017-039A","EPOCH":"2026-07-13T06:20:11.104224","CLASSIFICATION_TYPE":"U","MEAN_MOTION":14.34217146,"ECCENTRICITY":0.00020127,"INCLINATION":86.3988,"RA_OF_ASC_NODE":311.2796,"ARG_OF_PERICENTER":90.3861,"MEAN_ANOMALY":269.7566,"EPHEMERIS_TYPE":0,"NORAD_CAT_ID":42803,"ELEMENT_SET_NO":999,"REV_AT_EPOCH":47492,"BSTAR":-0.00000484861,"MEAN_MOTION_DOT":6e-8,"MEAN_MOTION_DDOT":0},{"OBJECT_NAME":"IRIDIUM 123","OBJECT_ID":"2017-039B","EPOCH":"2026-07-12T21:17:06.808704","CLASSIFICATION_TYPE":"U","MEAN_MOTION":14.34217109,"ECCENTRICITY":0.00020553,"INCLINATION":86.3984,"RA_OF_ASC_NODE":342.8934,"ARG_OF_PERICENTER":96.5802,"MEAN_ANOMALY":263.5628,"EPHEMERIS_TYPE":0,"NORAD_CAT_ID":42804,"ELEMENT_SET_NO":999,"REV_AT_EPOCH":47363,"BSTAR":-0.000012340736,"MEAN_MOTION_DOT":-1.5e-7,"MEAN_MOTION_DDOT":0},{"OBJECT_NAME":"IRIDIUM 120","OBJECT_ID":"2017-039C","EPOCH":"2026-07-12T06:44:31.329024","CLASSIFICATION_TYPE":"U","MEAN_MOTION":14.34216625,"ECCENTRICITY":0.0002227,"INCLINATION":86.3977,"RA_OF_ASC_NODE":311.4699,"ARG_OF_PERICENTER":98.0173,"MEAN_ANOMALY":262.1275,"EPHEMERIS_TYPE":0,"NORAD_CAT_ID":42805,"ELEMENT_SET_NO":999,"REV_AT_EPOCH":47477,"BSTAR":-0.000019145,"MEAN_MOTION_DOT":-3.4e-7,"MEAN_MOTION_DDOT":0},{"OBJECT_NAME":"IRIDIUM 115","OBJECT_ID":"2017-039D","EPOCH":"2026-07-13T07:48:55.236384","CLASSIFICATION_TYPE":"U","MEAN_MOTION":14.43277067,"ECCENTRICITY":0.00022134,"INCLINATION":86.4517,"RA_OF_ASC_NODE":311.1652,"ARG_OF_PERICENTER":99.4567,"MEAN_ANOMALY":260.6884,"EPHEMERIS_TYPE":0,"NORAD_CAT_ID":42806,"ELEMENT_SET_NO":999,"REV_AT_EPOCH":47803,"BSTAR":0.000050031976,"MEAN_MOTION_DOT":0.00000188,"MEAN_MOTION_DDOT":0},{"OBJECT_NAME":"IRIDIUM 118","OBJECT_ID":"2017-039E","EPOCH":"2026-07-12T22:02:46.941504","CLASSIFICATION_TYPE":"U","MEAN_MOTION":14.34217576,"ECCENTRICITY":0.00021353,"INCLINATION":86.3985,"RA_OF_ASC_NODE":342.878,"ARG_OF_PERICENTER":90.2798,"MEAN_ANOMALY":269.8642,"EPHEMERIS_TYPE":0,"NORAD_CAT_ID":42807,"ELEMENT_SET_NO":999,"REV_AT_EPOCH":47363,"BSTAR":0.000004121422,"MEAN_MOTION_DOT":3.1e-7,"MEAN_MOTION_DDOT":0},{"OBJECT_NAME":"IRIDIUM 117","OBJECT_ID":"2017-039F","EPOCH":"2026-07-12T22:30:10.806048","CLASSIFICATION_TYPE":"U","MEAN_MOTION":14.34217285,"ECCENTRICITY":0.00021846,"INCLINATION":86.3988,"RA_OF_ASC_NODE":342.8273,"ARG_OF_PERICENTER":94.8579,"MEAN_ANOMALY":265.2866,"EPHEMERIS_TYPE":0,"NORAD_CAT_ID":42808,"ELEMENT_SET_NO":999,"REV_AT_EPOCH":47366,"BSTAR":0.000029201802,"MEAN_MOTION_DOT":0.00000102,"MEAN_MOTION_DDOT":0}]}
